{
  "type": "FeatureCollection",
  "features": [
    {
      "type": "Feature",
      "properties": {
        "norad_id": 57400,
        "name": "TIANMU-1 08",
        "group": "weather",
        "lat": -48.86132333463765,
        "lon": 44.24379896162358,
        "alt_km": 492.1662398940971,
        "timestamp": "2025-12-12T03:50:52.059617+00:00",
        "meta_object_name": "TIANMU-1 08",
        "meta_object_id": "2023-101B",
        "meta_epoch": "2025-12-11T13:55:07.870080",
        "meta_mean_motion": 15.28032929,
        "meta_eccentricity": 0.00075159,
        "meta_inclination": 97.2867,
        "meta_ra_of_asc_node": 35.2533,
        "meta_arg_of_pericenter": 87.0625,
        "meta_mean_anomaly": 273.1475,
        "meta_ephemeris_type": 0,
        "meta_classification_type": "U",
        "meta_norad_cat_id": 57400,
        "meta_element_set_no": 999,
        "meta_rev_at_epoch": 13297,
        "meta_bstar": 0.00053565408,
        "meta_mean_motion_dot": 0.00014599,
        "meta_mean_motion_ddot": 0,
        "tle_line1": "1 57400U 23101B   25345.57995220  .00014599  00000+0  53565-3 0  9995",
        "tle_line2": "2 57400  97.2867  35.2533 0007515  87.0625 273.1475 15.28032929132976"
      },
      "geometry": {
        "type": "Point",
        "coordinates": [
          44.24379896162358,
          -48.86132333463765
        ]
      }
    },
    {
      "type": "Feature",
      "properties": {
        "norad_id": 57401,
        "name": "TIANMU-1 09",
        "group": "weather",
        "lat": 22.984224984654805,
        "lon": 32.22522787065227,
        "alt_km": 478.99442047132015,
        "timestamp": "2025-12-12T03:50:52.059628+00:00",
        "meta_object_name": "TIANMU-1 09",
        "meta_object_id": "2023-101C",
        "meta_epoch": "2025-12-11T13:36:07.924032",
        "meta_mean_motion": 15.28069377,
        "meta_eccentricity": 0.00067765,
        "meta_inclination": 97.2824,
        "meta_ra_of_asc_node": 34.7544,
        "meta_arg_of_pericenter": 87.079,
        "meta_mean_anomaly": 273.1225,
        "meta_ephemeris_type": 0,
        "meta_classification_type": "U",
        "meta_norad_cat_id": 57401,
        "meta_element_set_no": 999,
        "meta_rev_at_epoch": 13297,
        "meta_bstar": 0.00078695306,
        "meta_mean_motion_dot": 0.00021522,
        "meta_mean_motion_ddot": 0,
        "tle_line1": "1 57401U 23101C   25345.56675838  .00021522  00000+0  78695-3 0  9990",
        "tle_line2": "2 57401  97.2824  34.7544 0006776  87.0790 273.1225 15.28069377132977"
      },
      "geometry": {
        "type": "Point",
        "coordinates": [
          32.22522787065227,
          22.984224984654805
        ]
      }
    },
    {
      "type": "Feature",
      "properties": {
        "norad_id": 57402,
        "name": "TIANMU-1 10",
        "group": "weather",
        "lat": -15.341386898977907,
        "lon": -145.82915413425593,
        "alt_km": 488.534503449112,
        "timestamp": "2025-12-12T03:50:52.059638+00:00",
        "meta_object_name": "TIANMU-1 10",
        "meta_object_id": "2023-101D",
        "meta_epoch": "2025-12-11T14:25:23.650752",
        "meta_mean_motion": 15.28047998,
        "meta_eccentricity": 0.00085779,
        "meta_inclination": 97.2905,
        "meta_ra_of_asc_node": 35.6364,
        "meta_arg_of_pericenter": 86.7531,
        "meta_mean_anomaly": 273.469,
        "meta_ephemeris_type": 0,
        "meta_classification_type": "U",
        "meta_norad_cat_id": 57402,
        "meta_element_set_no": 999,
        "meta_rev_at_epoch": 13297,
        "meta_bstar": 0.00041132737,
        "meta_mean_motion_dot": 0.00011197,
        "meta_mean_motion_ddot": 0,
        "tle_line1": "1 57402U 23101D   25345.60096818  .00011197  00000+0  41133-3 0  9995",
        "tle_line2": "2 57402  97.2905  35.6364 0008577  86.7531 273.4690 15.28047998132972"
      },
      "geometry": {
        "type": "Point",
        "coordinates": [
          -145.82915413425593,
          -15.341386898977907
        ]
      }
    },
    {
      "type": "Feature",
      "properties": {
        "norad_id": 57490,
        "name": "FENGYUN 3F",
        "group": "weather",
        "lat": -39.353998060112815,
        "lon": 61.683707342497605,
        "alt_km": 832.4962184845026,
        "timestamp": "2025-12-12T03:50:52.059648+00:00",
        "meta_object_name": "FENGYUN 3F",
        "meta_object_id": "2023-111A",
        "meta_epoch": "2025-12-11T14:30:20.223936",
        "meta_mean_motion": 14.19894209,
        "meta_eccentricity": 6.635e-05,
        "meta_inclination": 98.7085,
        "meta_ra_of_asc_node": 53.9161,
        "meta_arg_of_pericenter": 99.6428,
        "meta_mean_anomaly": 260.4824,
        "meta_ephemeris_type": 0,
        "meta_classification_type": "U",
        "meta_norad_cat_id": 57490,
        "meta_element_set_no": 999,
        "meta_rev_at_epoch": 12224,
        "meta_bstar": 0.00015255069,
        "meta_mean_motion_dot": 2.8e-06,
        "meta_mean_motion_ddot": 0,
        "tle_line1": "1 57490U 23111A   25345.60440074  .00000280  00000+0  15255-3 0  9997",
        "tle_line2": "2 57490  98.7085  53.9161 0000663  99.6428 260.4824 14.19894209122246"
      },
      "geometry": {
        "type": "Point",
        "coordinates": [
          61.683707342497605,
          -39.353998060112815
        ]
      }
    },
    {
      "type": "Feature",
      "properties": {
        "norad_id": 58584,
        "name": "ARKTIKA-M 2",
        "group": "weather",
        "lat": 57.24916914052926,
        "lon": -56.78802243127228,
        "alt_km": 32499.1320418808,
        "timestamp": "2025-12-12T03:50:52.059663+00:00",
        "meta_object_name": "ARKTIKA-M 2",
        "meta_object_id": "2023-198A",
        "meta_epoch": "2025-12-08T20:10:13.977120",
        "meta_mean_motion": 2.0060476,
        "meta_eccentricity": 0.68646991,
        "meta_inclination": 63.2247,
        "meta_ra_of_asc_node": 175.3152,
        "meta_arg_of_pericenter": 268.1185,
        "meta_mean_anomaly": 18.8267,
        "meta_ephemeris_type": 0,
        "meta_classification_type": "U",
        "meta_norad_cat_id": 58584,
        "meta_element_set_no": 999,
        "meta_rev_at_epoch": 1450,
        "meta_bstar": 0,
        "meta_mean_motion_dot": 1.66e-06,
        "meta_mean_motion_ddot": 0,
        "tle_line1": "1 58584U 23198A   25342.84043955  .00000166  00000+0  00000+0 0  9998",
        "tle_line2": "2 58584  63.2247 175.3152 6864699 268.1185  18.8267  2.00604760 14506"
      },
      "geometry": {
        "type": "Point",
        "coordinates": [
          -56.78802243127228,
          57.24916914052926
        ]
      }
    },
    {
      "type": "Feature",
      "properties": {
        "norad_id": 58645,
        "name": "TIANMU-1 11",
        "group": "weather",
        "lat": 21.458438631001815,
        "lon": 2.880911164085844,
        "alt_km": 489.852301949034,
        "timestamp": "2025-12-12T03:50:52.059676+00:00",
        "meta_object_name": "TIANMU-1 11",
        "meta_object_id": "2023-205A",
        "meta_epoch": "2025-12-11T12:00:04.679424",
        "meta_mean_motion": 15.24588775,
        "meta_eccentricity": 0.00080229,
        "meta_inclination": 97.3611,
        "meta_ra_of_asc_node": 5.1449,
        "meta_arg_of_pericenter": 315.5983,
        "meta_mean_anomaly": 44.4611,
        "meta_ephemeris_type": 0,
        "meta_classification_type": "U",
        "meta_norad_cat_id": 58645,
        "meta_element_set_no": 999,
        "meta_rev_at_epoch": 10890,
        "meta_bstar": 0.0007911299,
        "meta_mean_motion_dot": 0.00019479,
        "meta_mean_motion_ddot": 0,
        "tle_line1": "1 58645U 23205A   25345.50005416  .00019479  00000+0  79113-3 0  9993",
        "tle_line2": "2 58645  97.3611   5.1449 0008022 315.5983  44.4611 15.24588775108906"
      },
      "geometry": {
        "type": "Point",
        "coordinates": [
          2.880911164085844,
          21.458438631001815
        ]
      }
    },
    {
      "type": "Feature",
      "properties": {
        "norad_id": 58646,
        "name": "TIANMU-1 12",
        "group": "weather",
        "lat": -53.49345331975582,
        "lon": 175.54165822885483,
        "alt_km": 497.3429897043434,
        "timestamp": "2025-12-12T03:50:52.059686+00:00",
        "meta_object_name": "TIANMU-1 12",
        "meta_object_id": "2023-205B",
        "meta_epoch": "2025-12-11T12:38:44.689632",
        "meta_mean_motion": 15.24471379,
        "meta_eccentricity": 0.00058901,
        "meta_inclination": 97.36,
        "meta_ra_of_asc_node": 4.9772,
        "meta_arg_of_pericenter": 296.7254,
        "meta_mean_anomaly": 63.338,
        "meta_ephemeris_type": 0,
        "meta_classification_type": "U",
        "meta_norad_cat_id": 58646,
        "meta_element_set_no": 999,
        "meta_rev_at_epoch": 10889,
        "meta_bstar": 0.00079773949,
        "meta_mean_motion_dot": 0.00019566,
        "meta_mean_motion_ddot": 0,
        "tle_line1": "1 58646U 23205B   25345.52690613  .00019566  00000+0  79774-3 0  9995",
        "tle_line2": "2 58646  97.3600   4.9772 0005890 296.7254  63.3380 15.24471379108894"
      },
      "geometry": {
        "type": "Point",
        "coordinates": [
          175.54165822885483,
          -53.49345331975582
        ]
      }
    }
  ]
}